start=new Date('2022-04-05T00:00:00.000Z').valueOf();
sats=[{"PERIAPSIS":"546.197","OBJECT_NAME":"STARLINK-2524","CENTER_NAME":"EARTH","RCS_SIZE":"LARGE","OBJECT_TYPE":"PAYLOAD","MEAN_ELEMENT_THEORY":"SGP4","APOAPSIS":"548.308","LAUNCH_DATE":"2021-04-29","REV_AT_EPOCH":"5182","ECCENTRICITY":"0.00015240","RA_OF_ASC_NODE":"55.3411","MEAN_MOTION_DDOT":"0.0000000000000","SITE":"AFETR","EPHEMERIS_TYPE":"0","MEAN_MOTION_DOT":"-0.00001211","PERIOD":"95.593","DECAY_DATE":null,"SEMIMAJOR_AXIS":"6925.388","REF_FRAME":"TEME","ARG_OF_PERICENTER":"57.9752","NORAD_CAT_ID":"48304","FILE":"3387897","TIME_SYSTEM":"UTC","MEAN_MOTION":"15.06387222","ELEMENT_SET_NO":"999","CLASSIFICATION_TYPE":"U","MEAN_ANOMALY":"302.1385","INCLINATION":"53.0565","BSTAR":"-0.00006240700000","EPOCH":"2022-04-04T07:12:18.406656","OBJECT_ID":"2021-036AE","TLE_LINE1":"1 48304U 21036AE  22094.30021304 -.00001211  00000-0 -62407-4 0  9991","COUNTRY_CODE":"US","GP_ID":"200424615","TLE_LINE2":"2 48304  53.0565  55.3411 0001524  57.9752 302.1385 15.06387222 51825"},{"PERIAPSIS":"546.074","OBJECT_NAME":"STARLINK-2519","CENTER_NAME":"EARTH","RCS_SIZE":"LARGE","OBJECT_TYPE":"PAYLOAD","MEAN_ELEMENT_THEORY":"SGP4","APOAPSIS":"548.398","LAUNCH_DATE":"2021-04-29","REV_AT_EPOCH":"5182","RA_OF_ASC_NODE":"55.3445","ECCENTRICITY":"0.00016780","MEAN_MOTION_DDOT":"0.0000000000000","EPHEMERIS_TYPE":"0","SITE":"AFETR","MEAN_MOTION_DOT":"-0.00001317","PERIOD":"95.593","DECAY_DATE":null,"SEMIMAJOR_AXIS":"6925.371","REF_FRAME":"TEME","ARG_OF_PERICENTER":"62.7756","NORAD_CAT_ID":"48305","FILE":"3387897","TIME_SYSTEM":"UTC","MEAN_MOTION":"15.06392666","CLASSIFICATION_TYPE":"U","ELEMENT_SET_NO":"999","INCLINATION":"53.0562","MEAN_ANOMALY":"297.3403","BSTAR":"-0.00006951100000","EPOCH":"2022-04-04T07:06:59.393664","OBJECT_ID":"2021-036AF","GP_ID":"200425861","TLE_LINE1":"1 48305U 21036AF  22094.29652076 -.00001317  00000-0 -69511-4 0  9996","COUNTRY_CODE":"US","TLE_LINE2":"2 48305  53.0562  55.3445 0001678  62.7756 297.3403 15.06392666 51822"},{"MEAN_ELEMENT_THEORY":"SGP4","APOAPSIS":"548.258","PERIAPSIS":"546.218","OBJECT_NAME":"STARLINK-2523","RCS_SIZE":"LARGE","CENTER_NAME":"EARTH","OBJECT_TYPE":"PAYLOAD","PERIOD":"95.593","MEAN_MOTION_DOT":"0.00000888","DECAY_DATE":null,"SEMIMAJOR_AXIS":"6925.373","REF_FRAME":"TEME","LAUNCH_DATE":"2021-04-29","RA_OF_ASC_NODE":"52.9859","ECCENTRICITY":"0.00014730","REV_AT_EPOCH":"5249","MEAN_MOTION_DDOT":"0.0000000000000","SITE":"AFETR","EPHEMERIS_TYPE":"0","TIME_SYSTEM":"UTC","MEAN_MOTION":"15.06392152","ARG_OF_PERICENTER":"50.5216","NORAD_CAT_ID":"48306","FILE":"3388064","TLE_LINE2":"2 48306  53.0553  52.9859 0001473  50.5216 309.5903 15.06392152 52499","TLE_LINE1":"1 48306U 21036AG  22094.82360679  .00000888  00000-0  78516-4 0  9996","GP_ID":"200431359","COUNTRY_CODE":"US","CLASSIFICATION_TYPE":"U","ELEMENT_SET_NO":"999","INCLINATION":"53.0553","MEAN_ANOMALY":"309.5903","BSTAR":"0.00007851600000","OBJECT_ID":"2021-036AG","EPOCH":"2022-04-04T19:45:59.626656"},{"MEAN_ANOMALY":"302.3868","INCLINATION":"53.0568","CLASSIFICATION_TYPE":"U","ELEMENT_SET_NO":"999","EPOCH":"2022-04-04T19:40:40.523808","OBJECT_ID":"2021-036AH","BSTAR":"0.00024982000000","TLE_LINE1":"1 48307U 21036AH  22094.81991347  .00003442  00000-0  24982-3 0  9994","GP_ID":"200431594","COUNTRY_CODE":"US","TLE_LINE2":"2 48307  53.0568  53.0007 0001783  57.7293 302.3868 15.06404542 52499","ARG_OF_PERICENTER":"57.7293","FILE":"3388067","NORAD_CAT_ID":"48307","TIME_SYSTEM":"UTC","MEAN_MOTION":"15.06404542","REV_AT_EPOCH":"5249","RA_OF_ASC_NODE":"53.0007","ECCENTRICITY":"0.00017830","LAUNCH_DATE":"2021-04-29","EPHEMERIS_TYPE":"0","SITE":"AFETR","MEAN_MOTION_DDOT":"0.0000000000000","SEMIMAJOR_AXIS":"6925.335","DECAY_DATE":null,"MEAN_MOTION_DOT":"0.00003442","PERIOD":"95.592","REF_FRAME":"TEME","OBJECT_NAME":"STARLINK-2528","PERIAPSIS":"545.965","OBJECT_TYPE":"PAYLOAD","CENTER_NAME":"EARTH","RCS_SIZE":"LARGE","MEAN_ELEMENT_THEORY":"SGP4","APOAPSIS":"548.434"},{"REF_FRAME":"TEME","PERIOD":"95.593","MEAN_MOTION_DOT":"0.00000564","DECAY_DATE":null,"SEMIMAJOR_AXIS":"6925.381","MEAN_MOTION_DDOT":"0.0000000000000","SITE":"AFETR","EPHEMERIS_TYPE":"0","LAUNCH_DATE":"2021-04-29","ECCENTRICITY":"0.00016490","RA_OF_ASC_NODE":"55.9962","REV_AT_EPOCH":"5180","APOAPSIS":"548.388","MEAN_ELEMENT_THEORY":"SGP4","RCS_SIZE":"LARGE","CENTER_NAME":"EARTH","OBJECT_TYPE":"PAYLOAD","PERIAPSIS":"546.104","OBJECT_NAME":"STARLINK-2532","TLE_LINE2":"2 48308  53.0552  55.9962 0001649  59.9145 300.2007 15.06389450 51801","TLE_LINE1":"1 48308U 21036AJ  22094.15277066  .00000564  00000-0  56758-4 0  9996","GP_ID":"200425115","COUNTRY_CODE":"US","BSTAR":"0.00005675800000","OBJECT_ID":"2021-036AJ","EPOCH":"2022-04-04T03:39:59.385024","ELEMENT_SET_NO":"999","CLASSIFICATION_TYPE":"U","INCLINATION":"53.0552","MEAN_ANOMALY":"300.2007","MEAN_MOTION":"15.06389450","TIME_SYSTEM":"UTC","NORAD_CAT_ID":"48308","FILE":"3387897","ARG_OF_PERICENTER":"59.9145"},{"OBJECT_ID":"2021-036AK","EPOCH":"2022-04-04T09:56:49.947072","BSTAR":"0.00004092000000","INCLINATION":"53.0553","MEAN_ANOMALY":"294.9234","ELEMENT_SET_NO":"999","CLASSIFICATION_TYPE":"U","TLE_LINE2":"2 48309  53.0553  54.8251 0001466  65.1907 294.9234 15.06392483 51849","GP_ID":"200425362","TLE_LINE1":"1 48309U 21036AK  22094.41446698  .00000328  00000-0  40920-4 0  9997","COUNTRY_CODE":"US","FILE":"3387897","NORAD_CAT_ID":"48309","ARG_OF_PERICENTER":"65.1907","MEAN_MOTION":"15.06392483","TIME_SYSTEM":"UTC","EPHEMERIS_TYPE":"0","SITE":"AFETR","MEAN_MOTION_DDOT":"0.0000000000000","RA_OF_ASC_NODE":"54.8251","ECCENTRICITY":"0.00014660","REV_AT_EPOCH":"5184","LAUNCH_DATE":"2021-04-29","REF_FRAME":"TEME","SEMIMAJOR_AXIS":"6925.372","DECAY_DATE":null,"PERIOD":"95.593","MEAN_MOTION_DOT":"0.00000328","OBJECT_TYPE":"PAYLOAD","RCS_SIZE":"LARGE","CENTER_NAME":"EARTH","OBJECT_NAME":"STARLINK-2517","PERIAPSIS":"546.221","APOAPSIS":"548.252","MEAN_ELEMENT_THEORY":"SGP4"},{"ARG_OF_PERICENTER":"72.9865","FILE":"3387897","NORAD_CAT_ID":"48310","TIME_SYSTEM":"UTC","MEAN_MOTION":"15.06388490","INCLINATION":"53.0555","MEAN_ANOMALY":"287.1272","ELEMENT_SET_NO":"999","CLASSIFICATION_TYPE":"U","EPOCH":"2022-04-04T05:04:54.812064","OBJECT_ID":"2021-036AL","BSTAR":"0.00017961000000","TLE_LINE1":"1 48310U 21036AL  22094.21174551  .00002394  00000-0  17961-3 0  9996","GP_ID":"200426098","COUNTRY_CODE":"US","TLE_LINE2":"2 48310  53.0555  55.7231 0001357  72.9865 287.1272 15.06388490 51815","OBJECT_NAME":"STARLINK-2536","PERIAPSIS":"546.309","OBJECT_TYPE":"PAYLOAD","CENTER_NAME":"EARTH","RCS_SIZE":"LARGE","MEAN_ELEMENT_THEORY":"SGP4","APOAPSIS":"548.189","REV_AT_EPOCH":"5181","ECCENTRICITY":"0.00013570","RA_OF_ASC_NODE":"55.7231","LAUNCH_DATE":"2021-04-29","SITE":"AFETR","EPHEMERIS_TYPE":"0","MEAN_MOTION_DDOT":"0.0000000000000","SEMIMAJOR_AXIS":"6925.384","DECAY_DATE":null,"MEAN_MOTION_DOT":"0.00002394","PERIOD":"95.593","REF_FRAME":"TEME"},{"TLE_LINE1":"1 48311U 21036AM  22094.20806254  .00000339  00000-0  41681-4 0  9992","COUNTRY_CODE":"US","GP_ID":"200424866","TLE_LINE2":"2 48311  53.0549  55.7495 0001577  68.2561 291.8596 15.06379919 51813","CLASSIFICATION_TYPE":"U","ELEMENT_SET_NO":"999","INCLINATION":"53.0549","MEAN_ANOMALY":"291.8596","BSTAR":"0.00004168100000","EPOCH":"2022-04-04T04:59:36.603456","OBJECT_ID":"2021-036AM","TIME_SYSTEM":"UTC","MEAN_MOTION":"15.06379919","ARG_OF_PERICENTER":"68.2561","NORAD_CAT_ID":"48311","FILE":"3387897","MEAN_MOTION_DOT":"0.00000339","PERIOD":"95.593","DECAY_DATE":null,"SEMIMAJOR_AXIS":"6925.410","REF_FRAME":"TEME","LAUNCH_DATE":"2021-04-29","REV_AT_EPOCH":"5181","ECCENTRICITY":"0.00015770","RA_OF_ASC_NODE":"55.7495","MEAN_MOTION_DDOT":"0.0000000000000","SITE":"AFETR","EPHEMERIS_TYPE":"0","MEAN_ELEMENT_THEORY":"SGP4","APOAPSIS":"548.367","PERIAPSIS":"546.183","OBJECT_NAME":"STARLINK-2534","CENTER_NAME":"EARTH","RCS_SIZE":"LARGE","OBJECT_TYPE":"PAYLOAD"},{"OBJECT_NAME":"STARLINK-2061","PERIAPSIS":"545.909","OBJECT_TYPE":"PAYLOAD","CENTER_NAME":"EARTH","RCS_SIZE":"LARGE","MEAN_ELEMENT_THEORY":"SGP4","APOAPSIS":"548.572","REV_AT_EPOCH":"5245","RA_OF_ASC_NODE":"55.7658","ECCENTRICITY":"0.00019230","LAUNCH_DATE":"2021-04-29","SITE":"AFETR","EPHEMERIS_TYPE":"0","MEAN_MOTION_DDOT":"0.0000000000000","DECAY_DATE":null,"SEMIMAJOR_AXIS":"6925.376","MEAN_MOTION_DOT":"-0.00000717","PERIOD":"95.593","REF_FRAME":"TEME","ARG_OF_PERICENTER":"49.9070","FILE":"3387076","NORAD_CAT_ID":"48312","TIME_SYSTEM":"UTC","MEAN_MOTION":"15.06391191","INCLINATION":"53.0554","MEAN_ANOMALY":"310.2088","CLASSIFICATION_TYPE":"U","ELEMENT_SET_NO":"999","EPOCH":"2022-04-04T04:54:17.847936","OBJECT_ID":"2021-036AN","BSTAR":"-0.00002925200000","TLE_LINE1":"1 48312U 21036AN  22094.20437324 -.00000717  00000-0 -29252-4 0  9993","GP_ID":"200385481","COUNTRY_CODE":"US","TLE_LINE2":"2 48312  53.0554  55.7658 0001923  49.9070 310.2088 15.06391191 52456"},{"CLASSIFICATION_TYPE":"U","ELEMENT_SET_NO":"999","INCLINATION":"53.0541","MEAN_ANOMALY":"309.0749","BSTAR":"0.00008634000000","OBJECT_ID":"2021-036AP","EPOCH":"2022-04-04T04:48:59.079456","TLE_LINE2":"2 48313  53.0541  55.7706 0001719  51.0393 309.0749 15.06383882 51808","COUNTRY_CODE":"US","TLE_LINE1":"1 48313U 21036AP  22094.20068379  .00001004  00000-0  86340-4 0  9993","GP_ID":"200425862","ARG_OF_PERICENTER":"51.0393","NORAD_CAT_ID":"48313","FILE":"3387897","TIME_SYSTEM":"UTC","MEAN_MOTION":"15.06383882","LAUNCH_DATE":"2021-04-29","ECCENTRICITY":"0.00017190","RA_OF_ASC_NODE":"55.7706","REV_AT_EPOCH":"5180","MEAN_MOTION_DDOT":"0.0000000000000","EPHEMERIS_TYPE":"0","SITE":"AFETR","PERIOD":"95.593","MEAN_MOTION_DOT":"0.00001004","DECAY_DATE":null,"SEMIMAJOR_AXIS":"6925.398","REF_FRAME":"TEME","PERIAPSIS":"546.072","OBJECT_NAME":"STARLINK-2541","RCS_SIZE":"LARGE","CENTER_NAME":"EARTH","OBJECT_TYPE":"PAYLOAD","MEAN_ELEMENT_THEORY":"SGP4","APOAPSIS":"548.453"}];
